{
  "type": "FeatureCollection",
  "features": [
    {
      "type": "Feature",
      "properties": {
        "ISO2": "US",
        "name": "United States"
      },
      "geometry": {
        "type": "Polygon",
        "coordinates": [
          [
            [-100, 40],
            [-100, 30],
            [-90, 30],
            [-90, 40],
            [-100, 40]
          ]
        ]
      }
    },
    {
      "type": "Feature",
      "properties": {
        "ISO2": "GB",
        "name": "United Kingdom"
      },
      "geometry": {
        "type": "Polygon",
        "coordinates": [
          [
            [-4, 58],
            [-4, 50],
            [1, 50],
            [1, 58],
            [-4, 58]
          ]
        ]
      }
    },
    {
      "type": "Feature",
      "properties": { "ISO2": "FJ", "name": "Fiji" },
      "geometry": {
        "type": "MultiPolygon",
        "coordinates": [
          [
            [
              [178, -17],
              [179, -17],
              [179, -18],
              [178, -18],
              [178, -17]
            ]
          ],
          [
            [
              [-179, -17],
              [-178, -17],
              [-178, -18],
              [-179, -18],
              [-179, -17]
            ]
          ]
        ]
      }
    }
  ]
}
